{"type": "FeatureCollection", "features": [ {"type": "Feature", "properties": {"norad_id": 33153, "name": "INTELSAT 25 (IS-25)", "group": "intelsat", "lat": -1.7050367374232476, "lon": -49.01825230312708, "alt_km": 35771.24550711329, "timestamp": "2025-12-21T16:47:54.396570+00:00", "meta": {"OBJECT_NAME": "INTELSAT 25 (IS-25)", "OBJECT_ID": "2008-034A", "EPOCH": "2025-12-21T07:15:38.694816", "MEAN_MOTION": 1.00269773, "ECCENTRICITY": 0.0004819, "INCLINATION": 2.2484, "RA_OF_ASC_NODE": 82.5583, "ARG_OF_PERICENTER": 188.4629, "MEAN_ANOMALY": 256.4971, "EPHEMERIS_TYPE": 0, "CLASSIFICATION_TYPE": "U", "NORAD_CAT_ID": 33153, "ELEMENT_SET_NO": 999, "REV_AT_EPOCH": 6391, "BSTAR": 0, "MEAN_MOTION_DOT": -2.03e-06, "MEAN_MOTION_DDOT": 0}, "tle": {"line1": "1 33153U 08034A   25355.30253119 -.00000203  00000+0  00000+0 0  9998", "line2": "2 33153   2.2484  82.5583 0004819 188.4629 256.4971  1.00269773 63916"}}, "geometry": {"type": "Point", "coordinates": [-49.01825230312708, -1.7050367374232476]}}, {"type": "Feature", "properties": {"norad_id": 33376, "name": "GALAXY 19 (G-19)", "group": "intelsat", "lat": -0.035485586126080514, "lon": -114.531982861292, "alt_km": 35776.95121123158, "timestamp": "2025-12-21T16:47:54.396582+00:00", "meta": {"OBJECT_NAME": "GALAXY 19 (G-19)", "OBJECT_ID": "2008-045A", "EPOCH": "2025-12-21T06:31:28.348032", "MEAN_MOTION": 1.00271314, "ECCENTRICITY": 0.0002535, "INCLINATION": 0.0168, "RA_OF_ASC_NODE": 317.9619, "ARG_OF_PERICENTER": 317.7913, "MEAN_ANOMALY": 175.208, "EPHEMERIS_TYPE": 0, "CLASSIFICATION_TYPE": "U", "NORAD_CAT_ID": 33376, "ELEMENT_SET_NO": 999, "REV_AT_EPOCH": 6312, "BSTAR": 0, "MEAN_MOTION_DOT": -1.16e-06, "MEAN_MOTION_DDOT": 0}, "tle": {"line1": "1 33376U 08045A   25355.27185588 -.00000116  00000+0  00000+0 0  9990", "line2": "2 33376   0.0168 317.9619 0002535 317.7913 175.2080  1.00271314 63125"}}, "geometry": {"type": "Point", "coordinates": [-114.531982861292, -0.035485586126080514]}}, {"type": "Feature", "properties": {"norad_id": 35493, "name": "FM-5", "group": "intelsat", "lat": -0.028536807388195598, "lon": -103.62071437125017, "alt_km": 35781.10462412958, "timestamp": "2025-12-21T16:47:54.396595+00:00", "meta": {"OBJECT_NAME": "FM-5", "OBJECT_ID": "2009-034A", "EPOCH": "2025-12-21T08:28:43.569120", "MEAN_MOTION": 1.00283426, "ECCENTRICITY": 0.0001051, "INCLINATION": 0.025, "RA_OF_ASC_NODE": 287.6168, "ARG_OF_PERICENTER": 261.9331, "MEAN_ANOMALY": 301.6753, "EPHEMERIS_TYPE": 0, "CLASSIFICATION_TYPE": "U", "NORAD_CAT_ID": 35493, "ELEMENT_SET_NO": 999, "REV_AT_EPOCH": 4486, "BSTAR": 0, "MEAN_MOTION_DOT": -1.79e-06, "MEAN_MOTION_DDOT": 0}, "tle": {"line1": "1 35493U 09034A   25355.35328205 -.00000179  00000+0  00000+0 0  9994", "line2": "2 35493   0.0250 287.6168 0001051 261.9331 301.6753  1.00283426 44866"}}, "geometry": {"type": "Point", "coordinates": [-103.62071437125017, -0.028536807388195598]}}, {"type": "Feature", "properties": {"norad_id": 36097, "name": "INTELSAT 14 (IS-14)", "group": "intelsat", "lat": -0.03419728040891046, "lon": -62.50287215407926, "alt_km": 35776.346714311556, "timestamp": "2025-12-21T16:47:54.396606+00:00", "meta": {"OBJECT_NAME": "INTELSAT 14 (IS-14)", "OBJECT_ID": "2009-064A", "EPOCH": "2025-12-21T11:16:21.315360", "MEAN_MOTION": 1.00270479, "ECCENTRICITY": 0.0002482, "INCLINATION": 0.0097, "RA_OF_ASC_NODE": 18.3515, "ARG_OF_PERICENTER": 263.7416, "MEAN_ANOMALY": 292.2909, "EPHEMERIS_TYPE": 0, "CLASSIFICATION_TYPE": "U", "NORAD_CAT_ID": 36097, "ELEMENT_SET_NO": 999, "REV_AT_EPOCH": 5882, "BSTAR": 0, "MEAN_MOTION_DOT": -2.51e-06, "MEAN_MOTION_DDOT": 0}, "tle": {"line1": "1 36097U 09064A   25355.46969115 -.00000251  00000+0  00000+0 0  9992", "line2": "2 36097   0.0097  18.3515 0002482 263.7416 292.2909  1.00270479 58827"}}, "geometry": {"type": "Point", "coordinates": [-62.50287215407926, -0.03419728040891046]}}, {"type": "Feature", "properties": {"norad_id": 36106, "name": "INTELSAT 15 (IS-15)", "group": "intelsat", "lat": 0.0421270779776333, "lon": 67.66015568616136, "alt_km": 35793.69730171251, "timestamp": "2025-12-21T16:47:54.396618+00:00", "meta": {"OBJECT_NAME": "INTELSAT 15 (IS-15)", "OBJECT_ID": "2009-067A", "EPOCH": "2025-12-21T11:53:25.265184", "MEAN_MOTION": 1.00271705, "ECCENTRICITY": 0.0002159, "INCLINATION": 0.0178, "RA_OF_ASC_NODE": 349.9665, "ARG_OF_PERICENTER": 291.7912, "MEAN_ANOMALY": 72.074, "EPHEMERIS_TYPE": 0, "CLASSIFICATION_TYPE": "U", "NORAD_CAT_ID": 36106, "ELEMENT_SET_NO": 999, "REV_AT_EPOCH": 3944, "BSTAR": 0, "MEAN_MOTION_DOT": -1.63e-06, "MEAN_MOTION_DDOT": 0}, "tle": {"line1": "1 36106U 09067A   25355.49543131 -.00000163  00000+0  00000+0 0  9997", "line2": "2 36106   0.0178 349.9665 0002159 291.7912  72.0740  1.00271705 39447"}}, "geometry": {"type": "Point", "coordinates": [67.66015568616136, 0.0421270779776333]}}, {"type": "Feature", "properties": {"norad_id": 36131, "name": "DIRECTV 12", "group": "intelsat", "lat": -0.006860065682660953, "lon": -120.23583993958147, "alt_km": 35787.078364858884, "timestamp": "2025-12-21T16:47:54.396630+00:00", "meta": {"OBJECT_NAME": "DIRECTV 12", "OBJECT_ID": "2009-075A", "EPOCH": "2025-12-20T21:18:05.647104", "MEAN_MOTION": 1.00270531, "ECCENTRICITY": 3.37e-05, "INCLINATION": 0.0166, "RA_OF_ASC_NODE": 99.1337, "ARG_OF_PERICENTER": 257.3135, "MEAN_ANOMALY": 310.0782, "EPHEMERIS_TYPE": 0, "CLASSIFICATION_TYPE": "U", "NORAD_CAT_ID": 36131, "ELEMENT_SET_NO": 999, "REV_AT_EPOCH": 4476, "BSTAR": 0, "MEAN_MOTION_DOT": -8e-07, "MEAN_MOTION_DDOT": 0}, "tle": {"line1": "1 36131U 09075A   25354.88756536 -.00000080  00000+0  00000+0 0  9999", "line2": "2 36131   0.0166  99.1337 0000337 257.3135 310.0782  1.00270531 44761"}}, "geometry": {"type": "Point", "coordinates": [-120.23583993958147, -0.006860065682660953]}}, {"type": "Feature", "properties": {"norad_id": 36397, "name": "INTELSAT 16 (IS-16)", "group": "intelsat", "lat": -0.03878586809392565, "lon": -93.7090784627648, "alt_km": 35778.5708812302, "timestamp": "2025-12-21T16:47:54.396641+00:00", "meta": {"OBJECT_NAME": "INTELSAT 16 (IS-16)", "OBJECT_ID": "2010-006A", "EPOCH": "2025-12-21T05:59:18.303360", "MEAN_MOTION": 1.00271275, "ECCENTRICITY": 0.0001825, "INCLINATION": 0.0124, "RA_OF_ASC_NODE": 352.4988, "ARG_OF_PERICENTER": 279.1643, "MEAN_ANOMALY": 192.0446, "EPHEMERIS_TYPE": 0, "CLASSIFICATION_TYPE": "U", "NORAD_CAT_ID": 36397, "ELEMENT_SET_NO": 999, "REV_AT_EPOCH": 5787, "BSTAR": 0, "MEAN_MOTION_DOT": -2.22e-06, "MEAN_MOTION_DDOT": 0}, "tle": {"line1": "1 36397U 10006A   25355.24951740 -.00000222  00000+0  00000+0 0  9992", "line2": "2 36397   0.0124 352.4988 0001825 279.1643 192.0446  1.00271275 57872"}}, "geometry": {"type": "Point", "coordinates": [-93.7090784627648, -0.03878586809392565]}}, {"type": "Feature", "properties": {"norad_id": 37185, "name": "XM-5", "group": "intelsat", "lat": -0.058485825789089785, "lon": -132.68673959751638, "alt_km": 35784.75591515853, "timestamp": "2025-12-21T16:47:54.396653+00:00", "meta": {"OBJECT_NAME": "XM-5", "OBJECT_ID": "2010-053A", "EPOCH": "2025-12-20T21:14:35.981088", "MEAN_MOTION": 1.00269291, "ECCENTRICITY": 0.0002244, "INCLINATION": 0.0661, "RA_OF_ASC_NODE": 270.9496, "ARG_OF_PERICENTER": 238.8649, "MEAN_ANOMALY": 143.3591, "EPHEMERIS_TYPE": 0, "CLASSIFICATION_TYPE": "U", "NORAD_CAT_ID": 37185, "ELEMENT_SET_NO": 999, "REV_AT_EPOCH": 5569, "BSTAR": 0, "MEAN_MOTION_DOT": 0, "MEAN_MOTION_DDOT": 0}, "tle": {"line1": "1 37185U 10053A   25354.88513867  .00000000  00000+0  00000+0 0  9996", "line2": "2 37185   0.0661 270.9496 0002244 238.8649 143.3591  1.00269291 55699"}}, "geometry": {"type": "Point", "coordinates": [-132.68673959751638, -0.058485825789089785]}}, {"type": "Feature", "properties": {"norad_id": 37238, "name": "INTELSAT 17 (IS-17)", "group": "intelsat", "lat": 0.002223308654539711, "lon": 48.486556571998555, "alt_km": 35791.464240764704, "timestamp": "2025-12-21T16:47:54.396665+00:00", "meta": {"OBJECT_NAME": "INTELSAT 17 (IS-17)", "OBJECT_ID": "2010-065B", "EPOCH": "2025-12-21T10:05:17.243808", "MEAN_MOTION": 1.0027158, "ECCENTRICITY": 0.0002833, "INCLINATION": 0.0322, "RA_OF_ASC_NODE": 71.525, "ARG_OF_PERICENTER": 220.7239, "MEAN_ANOMALY": 15.2864, "EPHEMERIS_TYPE": 0, "CLASSIFICATION_TYPE": "U", "NORAD_CAT_ID": 37238, "ELEMENT_SET_NO": 999, "REV_AT_EPOCH": 5146, "BSTAR": 0, "MEAN_MOTION_DOT": 0, "MEAN_MOTION_DDOT": 0}, "tle": {"line1": "1 37238U 10065B   25355.42033847  .00000000  00000+0  00000+0 0  9994", "line2": "2 37238   0.0322  71.5250 0002833 220.7239  15.2864  1.00271580 51469"}}, "geometry": {"type": "Point", "coordinates": [48.486556571998555, 0.002223308654539711]}}, {"type": "Feature", "properties": {"norad_id": 37392, "name": "INTELSAT 28 (IS-28)", "group": "intelsat", "lat": -0.987356139954842, "lon": -49.19996938569282, "alt_km": 35774.293862862665, "timestamp": "2025-12-21T16:47:54.396677+00:00", "meta": {"OBJECT_NAME": "INTELSAT 28 (IS-28)", "OBJECT_ID": "2011-016A", "EPOCH": "2025-12-21T11:20:05.957088", "MEAN_MOTION": 1.00269544, "ECCENTRICITY": 0.0003703, "INCLINATION": 1.3458, "RA_OF_ASC_NODE": 84.9616, "ARG_OF_PERICENTER": 189.051, "MEAN_ANOMALY": 314.6013, "EPHEMERIS_TYPE": 0, "CLASSIFICATION_TYPE": "U", "NORAD_CAT_ID": 37392, "ELEMENT_SET_NO": 999, "REV_AT_EPOCH": 5150, "BSTAR": 0, "MEAN_MOTION_DOT": -2.03e-06, "MEAN_MOTION_DDOT": 0}, "tle": {"line1": "1 37392U 11016A   25355.47229117 -.00000203  00000+0  00000+0 0  9990", "line2": "2 37392   1.3458  84.9616 0003703 189.0510 314.6013  1.00269544 51508"}}, "geometry": {"type": "Point", "coordinates": [-49.19996938569282, -0.987356139954842]}}]}